
G1 X0.0 Y0.0 Z-0.20 A0.0 C0.0 F800

G1 X0.05 Y0.0 Z-0.22 A0.0 C0.0 
G1 X0.05 Y0.0 Z-0.28
G1 X0.05 Y0.0 Z-0.22

G1 X0.0 Y0.0 Z-0.20

G1 X-0.05 Y0.0 Z-0.22
G1 X-0.05 Y0.0 Z-0.28
G1 X-0.05 Y0.0 Z-0.22

G1 X0.0 Y0.0 Z-0.20

G1 X0.0 Y0.05 Z-0.22
G1 X0.0 Y0.05 Z-0.28
G1 X0.0 Y0.05 Z-0.22

G1 X0.0 Y0.05 Z-0.20

G1 X0.0 Y-0.05 Z-0.22
G1 X0.0 Y-0.05 Z-0.28
G1 X0.0 Y-0.05 Z-0.22

G1 X0.0 Y0.0 Z-0.20

G1 X-0.05 Y0.0 Z-0.22
G1 X-0.05 Y0.0 Z-0.28
G1 X-0.05 Y0.0 Z-0.22

G1 X0.0 Y0.0 Z-0.20

G1 X0.05 Y0.0 Z-0.22
G1 X0.05 Y0.0 Z-0.28
G1 X0.05 Y0.0 Z-0.22

G1 X0.0 Y0.0 Z-0.20

G1 X0.0 Y-0.05 Z-0.22
G1 X0.0 Y-0.05 Z-0.28
G1 X0.0 Y-0.05 Z-0.22

G1 X0.0 Y0.0 Z-0.20

G1 X0.0 Y0.05 Z-0.22
G1 X0.0 Y0.05 Z-0.28
G1 X0.0 Y0.05 Z-0.22 A00.0 C00.0 

G1 X0.0 Y0.0 Z-0.20