
G1 X0.0 Y0.0 Z-0.20 A0.0 C0.0 F700

G1 X0.05 Y0.0 Z-0.22
G1 X0.05 Y0.0 Z-0.28
G1 X0.05 Y0.0 Z-0.22

G1 X0.0 Y0.0 Z-0.20

G1 X-0.05 Y0.0 Z-0.22
G1 X-0.05 Y0.0 Z-0.28
G1 X-0.05 Y0.0 Z-0.22

G1 X0.0 Y0.0 Z-0.20

G1 X0.0 Y0.05 Z-0.22
G1 X0.0 Y0.05 Z-0.28
G1 X0.0 Y0.05 Z-0.22

G1 X0.0 Y0.05 Z-0.20

G1 X0.0 Y-0.05 Z-0.22
G1 X0.0 Y-0.05 Z-0.28
G1 X0.0 Y-0.05 Z-0.22

G1 X0.0 Y0.0 Z-0.20

G1 X-0.05 Y0.0 Z-0.22
G1 X-0.05 Y0.0 Z-0.28
G1 X-0.05 Y0.0 Z-0.22

G1 X0.0 Y0.0 Z-0.20

G1 X0.05 Y0.0 Z-0.22
G1 X0.05 Y0.0 Z-0.28
G1 X0.05 Y0.0 Z-0.22

G1 X0.0 Y0.0 Z-0.20

G1 X0.0 Y-0.05 Z-0.22
G1 X0.0 Y-0.05 Z-0.28
G1 X0.0 Y-0.05 Z-0.22

G1 X0.0 Y0.0 Z-0.20

G1 X0.0 Y0.05 Z-0.22
G1 X0.0 Y0.05 Z-0.28
G1 X0.0 Y0.05 Z-0.22

G1 X0.0 Y0.0 Z-0.20