
G1 X0.0 Y0.0 Z-0.35 F500

G1 X0.05 Y0.0 Z-0.4 
G1 X0.05 Y0.0 Z-0.425
G1 X0.05 Y0.0 Z-0.4

G1 X0.0 Y0.0 Z-0.35

G1 X-0.05 Y0.0 Z-0.4
G1 X-0.05 Y0.0 Z-0.425
G1 X-0.05 Y0.0 Z-0.4

G1 X0.0 Y0.0 Z-0.35

G1 X0.0 Y0.05 Z-0.4
G1 X0.0 Y0.05 Z-0.425
G1 X0.0 Y0.05 Z-0.4

G1 X0.0 Y0.0 Z-0.35

G1 X0.0 Y-0.05 Z-0.4
G1 X0.0 Y-0.05 Z-0.425
G1 X0.0 Y-0.05 Z-0.4

G1 X0.0 Y0.0 Z-0.35

G1 X-0.05 Y0.0 Z-0.4
G1 X-0.05 Y0.0 Z-0.425
G1 X-0.05 Y0.0 Z-0.4

G1 X0.0 Y0.0 Z-0.35

G1 X0.05 Y0.0 Z-0.4
G1 X0.05 Y0.0 Z-0.425
G1 X0.05 Y0.0 Z-0.4

G1 X0.0 Y0.0 Z-0.35

G1 X0.0 Y-0.05 Z-0.4
G1 X0.0 Y-0.05 Z-0.425
G1 X0.0 Y-0.05 Z-0.4

G1 X0.0 Y0.0 Z-0.35

G1 X0.0 Y0.05 Z-0.4
G1 X0.0 Y0.05 Z-0.425
G1 X0.0 Y0.05 Z-0.4

G1 X0.0 Y0.0 Z-0.35